RANGE-B                 
1 43773U 18099R   23229.09212217  .00003914  00000+0  32791-3 0  9994
2 43773  97.5579 286.8837 0011635 269.9278  90.0612 14.98931886256681
2018-099T               
1 43775U 18099T   23228.13950809  .00002254  00000+0  19301-3 0  9994
2 43775  97.5695 287.5042 0012083 283.5782  76.4095 14.98497385256536
MOVE-II                 
1 43780U 18099Y   23228.16792037  .00009655  00000+0  68457-3 0  9998
2 43780  97.5683 290.9606 0006885 315.6524  44.4150 15.04961199256755
SNUSAT-2                
1 43782U 18099AA  23229.09356489  .00004913  00000+0  39585-3 0  9992
2 43782  97.5645 289.5094 0012468 245.7460 114.2462 15.00311029256766
SNUGLITE                
1 43784U 18099AC  23228.75296001  .00005002  00000+0  39700-3 0  9998
2 43784  97.5550 288.8494 0006301 253.0152 107.0382 15.00927352256750
ITASAT 1                
1 43786U 18099AE  23228.14009204  .00003741  00000+0  30434-3 0  9993
2 43786  97.5755 289.1058 0013921 290.4425  69.5304 15.00073482256632
KAZSCISAT-1             
1 43787U 18099AF  23228.41110290  .00008062  00000+0  58054-3 0  9991
2 43787  97.5513 289.4237 0006291 279.6439  80.4076 15.04436431256823
EAGLET-I                
1 43790U 18099AJ  23228.40086975  .00003628  00000+0  29974-3 0  9998
2 43790  97.5746 289.7744 0009799 290.7688  69.2486 14.99538591256404
ESEO                    
1 43792U 18099AL  23228.42088172  .00001603  00000+0  14085-3 0  9991
2 43792  97.5649 288.0817 0011594 283.9033  76.0900 14.97896656256409
CSIM-FD                 
1 43793U 18099AM  23228.17967352  .00008984  00000+0  62985-3 0  9991
2 43793  97.5738 292.3734 0013741 282.1911  77.7776 15.05351042256603
ASTROCAST 0.1           
1 43798U 18099AS  23228.98380593  .00009907  00000+0  72542-3 0  9997
2 43798  97.5823 292.4286 0010815 253.9383 106.0652 15.03716094256906
JY1SAT (JO-97)          
1 43803U 18099AX  23228.10435233  .00005770  00000+0  44909-3 0  9990
2 43803  97.5724 289.1783 0011557 258.5739 101.4188 15.01574170256681
SUOMI-100               
1 43804U 18099AY  23229.11525933  .00006306  00000+0  49417-3 0  9995
2 43804  97.5741 289.9196 0017461 270.1991  89.7232 15.01216276256832
AL-FARABI 2             
1 43805U 18099AZ  23227.11979757  .00007632  00000+0  56886-3 0  9992
2 43805  97.5579 289.0832 0011656 259.1417 100.8497 15.03114870256602
CENTAURI-1              
1 43809U 18099BD  23228.07573725  .00003115  00000+0  25563-3 0  9997
2 43809  97.5712 288.8698 0013700 289.1324  70.8417 14.99867065256348
CHOMPTT                 
1 43855U 18104G   23228.20385047  .00028927  00000+0  63937-3 0  9993
2 43855  85.0294 125.2363 0014797  91.5737 268.7212 15.43576996259826
UWE-4                   
1 43880U 18111E   23228.29172569  .00007236  00000+0  54080-3 0  9990
2 43880  97.6270 132.5519 0017965 332.1553  27.8709 15.02960509251392
ZACUBE-2                
1 43907U 18111AH  23229.06464381  .00035170  00000+0  76855-3 0  9994
2 43907  97.1281 107.3411 0013029   4.1957 355.9399 15.44008199258538
MICRODRAGON             
1 43935U 19003D   23228.27909390  .00018906  00000+0  52826-3 0  9992
2 43935  97.1013 245.7045 0015726  96.9481 263.3553 15.36613859254658
FORMOSAT 7-4            
1 44350U 19036M   23227.97455627  .00007443  00000+0  42116-3 0  9990
2 44350  24.0007 337.4184 0000797 106.8428 253.2163 15.10333063227810
METEOR-M2 2             
1 44387U 19038A   23229.09955658  .00000066  00000+0  48180-4 0  9998
2 44387  98.7804 192.8950 0002333 105.4043 254.7393 14.23798694213974
VDNH-80                 
1 44392U 19038G   23229.01686271  .00028845  00000+0  91894-3 0  9992
2 44392  97.6754 212.3545 0017140  90.8779 269.4426 15.32369128227618
D-STAR ONE (LIGHTSAT)   
1 44393U 19038H   23228.67623491  .00028862  00000+0  89519-3 0  9999
2 44393  97.6757 212.1556 0017204  91.5036 268.8177 15.33223376227775
AMGU-1 (AMURSAT)        
1 44394U 19038J   23228.43088989  .00030069  00000+0  87227-3 0  9997
2 44394  97.6730 212.3493 0016443  91.7582 268.5544 15.35342950227778
DOT-1                   
1 44399U 19038P   23228.42568470  .00014067  00000+0  57025-3 0  9992
2 44399  97.6859 208.1379 0021335 104.8802 255.4800 15.24549833227450
SOKRAT                  
1 44404U 19038U   23228.19393965  .00030827  00000+0  90935-3 0  9997
2 44404  97.6742 211.5643 0016930  93.6803 266.6376 15.34803430227708
LUCKY-7                 
1 44406U 19038W   23228.42044692  .00015358  00000+0  59941-3 0  9999
2 44406  97.6834 208.9058 0020900  96.4175 263.9443 15.25805757227504
D-STAR ONE (EXOCONNECT) 
1 44410U 19038AA  23228.93496522  .00155701  00000+0  18503-2 0  9998
2 44410  97.6597 218.5872 0012031  92.0866 268.1768 15.60555619228260
NARSSCUBE-2             
1 44415U 19022E   23227.95401454  .00033133  00000+0  53882-3 0  9991
2 44415  51.6324 202.0349 0008164 149.1918 210.9552 15.52336684225582
DUCHIFAT-3              
1 44854U 19089C   23228.97471714  .00009566  00000+0  62601-3 0  9992
2 44854  36.9614  87.7195 0006498  88.8664 271.2825 15.07273021202009
OPS-SAT                 
1 44878U 19092F   23228.77783499  .00019858  00000+0  54182-3 0  9996
2 44878  97.4735  58.4352 0007123 275.3700  84.6732 15.37453215203092
FLORIPASAT-1            
1 44885U 19093G   23229.01585957  .00004089  00000+0  47017-3 0  9991
2 44885  97.8668 309.5175 0012502 236.8473 123.1544 14.86288204197985
BY70-2                  
1 45857U 20042B   23229.05378411  .00012526  00000+0  12115-2 0  9991
2 45857  97.9248 309.2591 0009973 161.9936 198.1638 14.92883568168614
SALSAT                  
1 46495U 20068K   23228.10463806  .00004306  00000+0  28124-3 0  9991
2 46495  97.7726 176.7759 0013305 277.1760  82.7955 15.08318299158109
NETSAT-4                
1 46504U 20068U   23228.42857616  .00006067  00000+0  39392-3 0  9998
2 46504  97.7647 174.8502 0009730 335.0008  25.0747 15.08394616157984
NETSAT-3                
1 46505U 20068V   23228.66853537  .00007551  00000+0  49196-3 0  9995
2 46505  97.7630 174.8824 0009193 343.2538  16.8384 15.08184500158026
NETSAT-1                
1 46506U 20068W   23228.59278881  .00005895  00000+0  38939-3 0  9993
2 46506  97.7645 174.6611 0008038 356.3928   3.7240 15.07780017158008
NETSAT-2                
1 46507U 20068X   23229.09276270  .00006917  00000+0  44942-3 0  9997
2 46507  97.7636 175.2499 0007495   3.7640 356.3643 15.08329765158037
UVSQ-SAT                
1 47438U 21006AB  23228.38503862  .00015899  00000+0  61452-3 0  9999
2 47438  97.3794 284.6885 0008669 219.7079 140.3525 15.26284835141822
SOMP2B                  
1 47445U 21006AJ  23228.14205223  .00015218  00000+0  60322-3 0  9991
2 47445  97.3765 283.6032 0008348 226.5889 133.4655 15.25455208141752
CAS-5A                  
1 54684U 22167C   23229.05059906  .00014560  00000+0  76994-3 0  9990
2 54684  97.5702   6.2949 0014057 123.6844 236.5730 15.15487433 37898
